[
  {
    "id": "IGD65956",
    "street": "44316 N Walnut Street",
    "city": "Anaheim",
    "state": "Illinois",
    "zipCode": "03508-7811"
  },
  {
    "id": "EFL98771",
    "street": "612 Franklin Street",
    "city": "Careyton",
    "state": "Missouri",
    "zipCode": "03062-6371"
  },
  {
    "id": "ZEQ30567",
    "street": "22567 Gloria Trafficway",
    "city": "North Aurelie",
    "state": "Ohio",
    "zipCode": "55503"
  },
  {
    "id": "AFD23417",
    "street": "4345 Front Street",
    "city": "Riceton",
    "state": "Michigan",
    "zipCode": "25667-2336"
  },
  {
    "id": "HEM67600",
    "street": "6142 The Green",
    "city": "Estefanialand",
    "state": "Indiana",
    "zipCode": "36132"
  },
  {
    "id": "DPT11990",
    "street": "285 Chestnut Close",
    "city": "Alexanecester",
    "state": "Vermont",
    "zipCode": "73293-9815"
  },
  {
    "id": "YFU46477",
    "street": "127 O'Keefe Hills",
    "city": "McDermottchester",
    "state": "New York",
    "zipCode": "06097"
  },
  {
    "id": "ZPH31304",
    "street": "34592 Chapel Close",
    "city": "Katlynport",
    "state": "Florida",
    "zipCode": "84422-7721"
  },
  {
    "id": "HHO34657",
    "street": "4701 Lakin Streets",
    "city": "Easterstad",
    "state": "Alaska",
    "zipCode": "84256"
  },
  {
    "id": "KAU48849",
    "street": "292 Skiles Vista",
    "city": "Lake Dorotheafort",
    "state": "Arizona",
    "zipCode": "81505"
  }
]